LEMUR-2-GREENBERG       
1 42837U 17042N   26068.46200528  .00019778  00000+0  72539-3 0  9997
2 42837  97.3781 249.8007 0009157   4.0119 356.1192 15.27971352473146
STARLINK-34222          
1 64191U 25113X   26068.44120513  .00027535  00000+0  93845-3 0  9998
2 64191  53.1598  92.5258 0001336  80.5572 279.5580 15.30196643 44984
