[{"OBJECT_NAME":"LEMUR-2-GREENBERG","OBJECT_ID":"2017-042N","EPOCH":"2026-03-09T11:05:17.256192","MEAN_MOTION":15.27971352,"ECCENTRICITY":0.00091572,"INCLINATION":97.3781,"RA_OF_ASC_NODE":249.8007,"ARG_OF_PERICENTER":4.0119,"MEAN_ANOMALY":356.1192,"EPHEMERIS_TYPE":0,"CLASSIFICATION_TYPE":"U","NORAD_CAT_ID":42837,"ELEMENT_SET_NO":999,"REV_AT_EPOCH":47314,"BSTAR":0.00072539172,"MEAN_MOTION_DOT":0.00019778,"MEAN_MOTION_DDOT":0},{"OBJECT_NAME":"STARLINK-34222","OBJECT_ID":"2025-113X","EPOCH":"2026-03-09T10:35:20.123232","MEAN_MOTION":15.30196643,"ECCENTRICITY":0.00013369,"INCLINATION":53.1598,"RA_OF_ASC_NODE":92.5258,"ARG_OF_PERICENTER":80.5572,"MEAN_ANOMALY":279.558,"EPHEMERIS_TYPE":0,"CLASSIFICATION_TYPE":"U","NORAD_CAT_ID":64191,"ELEMENT_SET_NO":999,"REV_AT_EPOCH":4498,"BSTAR":0.00093844969,"MEAN_MOTION_DOT":0.00027535,"MEAN_MOTION_DDOT":0}]
